{
  "type": "FeatureCollection",
  "name": "urban_heat_buildings_munich",
  "crs": {
    "type": "name",
    "properties": {
      "name": "urn:ogc:def:crs:OGC:1.3:CRS84"
    }
  },
  "features": [
    {
      "type": "Feature",
      "properties": {
        "id": "17221acd-5ec0-4e1c-addd-a02294a5f3b0",
        "externalId": "BLDG-001",
        "name": "Isar Center",
        "address": "Maximilianstraße 4, District 2",
        "city": "Munich",
        "buildingType": "IT Park",
        "yearBuilt": 2019,
        "floors": 16,
        "heightM": 55.62,
        "squareFootage": 181416.5,
        "annualRent": 7205508.84,
        "operatingExpenses": 1837826.6,
        "vacancyRate": 0.0767,
        "rentalYield": 0.0493,
        "energyEfficiencyRating": "A",
        "treeCanopyPercentage": 10.5,
        "surfaceTemperature": 29.8,
        "latitude": 48.135351,
        "longitude": 11.571532
      },
      "geometry": {
        "type": "Polygon",
        "coordinates": [
          [
            [
              11.571352,
              48.135171
            ],
            [
              11.571712,
              48.135171
            ],
            [
              11.571712,
              48.135531
            ],
            [
              11.571352,
              48.135531
            ],
            [
              11.571352,
              48.135171
            ]
          ]
        ]
      }
    },
    {
      "type": "Feature",
      "properties": {
        "id": "4978ad28-b914-428f-bc4f-50932a7f0ec0",
        "externalId": "BLDG-002",
        "name": "Maxvorstadt Forum",
        "address": "Maximilianstraße 8, District 3",
        "city": "Munich",
        "buildingType": "Retail Complex",
        "yearBuilt": 2011,
        "floors": 26,
        "heightM": 91.14,
        "squareFootage": 203243.06,
        "annualRent": 7199728.07,
        "operatingExpenses": 2473582.88,
        "vacancyRate": 0.0219,
        "rentalYield": 0.0487,
        "energyEfficiencyRating": "B",
        "treeCanopyPercentage": 20.63,
        "surfaceTemperature": 28.6,
        "latitude": 48.150902,
        "longitude": 11.568209
      },
      "geometry": {
        "type": "Polygon",
        "coordinates": [
          [
            [
              11.568029,
              48.150722
            ],
            [
              11.568389,
              48.150722
            ],
            [
              11.568389,
              48.151082
            ],
            [
              11.568029,
              48.151082
            ],
            [
              11.568029,
              48.150722
            ]
          ]
        ]
      }
    },
    {
      "type": "Feature",
      "properties": {
        "id": "42599a22-6557-482e-9d6d-049e53b12212",
        "externalId": "BLDG-003",
        "name": "Schwabing Office Park",
        "address": "Maximilianstraße 12, District 4",
        "city": "Munich",
        "buildingType": "Commercial Office",
        "yearBuilt": 2007,
        "floors": 7,
        "heightM": 24.61,
        "squareFootage": 39507.25,
        "annualRent": 1316812.36,
        "operatingExpenses": 302135.75,
        "vacancyRate": 0.1473,
        "rentalYield": 0.0544,
        "energyEfficiencyRating": "C",
        "treeCanopyPercentage": 37.53,
        "surfaceTemperature": 27.3,
        "latitude": 48.138594,
        "longitude": 11.582188
      },
      "geometry": {
        "type": "Polygon",
        "coordinates": [
          [
            [
              11.582008,
              48.138414
            ],
            [
              11.582368,
              48.138414
            ],
            [
              11.582368,
              48.138774
            ],
            [
              11.582008,
              48.138774
            ],
            [
              11.582008,
              48.138414
            ]
          ]
        ]
      }
    },
    {
      "type": "Feature",
      "properties": {
        "id": "d41b8754-3ff7-41f1-95d3-a200b60414f2",
        "externalId": "BLDG-004",
        "name": "Marienplatz Plaza",
        "address": "Maximilianstraße 16, District 5",
        "city": "Munich",
        "buildingType": "Retail Complex",
        "yearBuilt": 2008,
        "floors": 5,
        "heightM": 18.77,
        "squareFootage": 57481.71,
        "annualRent": 1445108.19,
        "operatingExpenses": 439868.3,
        "vacancyRate": 0.0791,
        "rentalYield": 0.0623,
        "energyEfficiencyRating": "D",
        "treeCanopyPercentage": 17.05,
        "surfaceTemperature": 29.8,
        "latitude": 48.129296,
        "longitude": 11.557621
      },
      "geometry": {
        "type": "Polygon",
        "coordinates": [
          [
            [
              11.557441,
              48.129116
            ],
            [
              11.557801,
              48.129116
            ],
            [
              11.557801,
              48.129476
            ],
            [
              11.557441,
              48.129476
            ],
            [
              11.557441,
              48.129116
            ]
          ]
        ]
      }
    },
    {
      "type": "Feature",
      "properties": {
        "id": "63f37667-68fa-43f1-bcc5-7528ce767618",
        "externalId": "BLDG-005",
        "name": "Bogenhausen Heights",
        "address": "Maximilianstraße 20, District 1",
        "city": "Munich",
        "buildingType": "Commercial Office",
        "yearBuilt": 1999,
        "floors": 29,
        "heightM": 100.88,
        "squareFootage": 245994.86,
        "annualRent": 8454070.38,
        "operatingExpenses": 2627782.62,
        "vacancyRate": 0.0803,
        "rentalYield": 0.0377,
        "energyEfficiencyRating": "B",
        "treeCanopyPercentage": 42.72,
        "surfaceTemperature": 27.4,
        "latitude": 48.152168,
        "longitude": 11.57075
      },
      "geometry": {
        "type": "Polygon",
        "coordinates": [
          [
            [
              11.57057,
              48.151988
            ],
            [
              11.57093,
              48.151988
            ],
            [
              11.57093,
              48.152348
            ],
            [
              11.57057,
              48.152348
            ],
            [
              11.57057,
              48.151988
            ]
          ]
        ]
      }
    },
    {
      "type": "Feature",
      "properties": {
        "id": "8b2e5ba8-1141-422a-ae0e-849279b9e1a1",
        "externalId": "BLDG-006",
        "name": "Sendling Tech Hub",
        "address": "Maximilianstraße 24, District 2",
        "city": "Munich",
        "buildingType": "Commercial Office",
        "yearBuilt": 2014,
        "floors": 12,
        "heightM": 42.92,
        "squareFootage": 116058.72,
        "annualRent": 4650723.0,
        "operatingExpenses": 1347822.51,
        "vacancyRate": 0.1115,
        "rentalYield": 0.0632,
        "energyEfficiencyRating": "E",
        "treeCanopyPercentage": 40.85,
        "surfaceTemperature": 27.0,
        "latitude": 48.148443,
        "longitude": 11.579473
      },
      "geometry": {
        "type": "Polygon",
        "coordinates": [
          [
            [
              11.579293,
              48.148263
            ],
            [
              11.579653,
              48.148263
            ],
            [
              11.579653,
              48.148623
            ],
            [
              11.579293,
              48.148623
            ],
            [
              11.579293,
              48.148263
            ]
          ]
        ]
      }
    },
    {
      "type": "Feature",
      "properties": {
        "id": "dbdbbce8-65b0-44c0-adce-1915461dcd20",
        "externalId": "BLDG-007",
        "name": "Pasing Central",
        "address": "Maximilianstraße 28, District 3",
        "city": "Munich",
        "buildingType": "Retail Complex",
        "yearBuilt": 2016,
        "floors": 4,
        "heightM": 15.96,
        "squareFootage": 33781.45,
        "annualRent": 1429999.79,
        "operatingExpenses": 375323.58,
        "vacancyRate": 0.117,
        "rentalYield": 0.0498,
        "energyEfficiencyRating": "E",
        "treeCanopyPercentage": 37.68,
        "surfaceTemperature": 26.7,
        "latitude": 48.130331,
        "longitude": 11.578933
      },
      "geometry": {
        "type": "Polygon",
        "coordinates": [
          [
            [
              11.578753,
              48.130151
            ],
            [
              11.579113,
              48.130151
            ],
            [
              11.579113,
              48.130511
            ],
            [
              11.578753,
              48.130511
            ],
            [
              11.578753,
              48.130151
            ]
          ]
        ]
      }
    },
    {
      "type": "Feature",
      "properties": {
        "id": "50687a30-d878-4432-bc55-d5ab214a876c",
        "externalId": "BLDG-008",
        "name": "Giesing Commercial",
        "address": "Maximilianstraße 32, District 4",
        "city": "Munich",
        "buildingType": "Mixed-Use Commercial",
        "yearBuilt": 2019,
        "floors": 11,
        "heightM": 39.31,
        "squareFootage": 55994.2,
        "annualRent": 1666687.25,
        "operatingExpenses": 413720.94,
        "vacancyRate": 0.1275,
        "rentalYield": 0.0479,
        "energyEfficiencyRating": "D",
        "treeCanopyPercentage": 11.23,
        "surfaceTemperature": 29.7,
        "latitude": 48.150766,
        "longitude": 11.562552
      },
      "geometry": {
        "type": "Polygon",
        "coordinates": [
          [
            [
              11.562372,
              48.150586
            ],
            [
              11.562732,
              48.150586
            ],
            [
              11.562732,
              48.150946
            ],
            [
              11.562372,
              48.150946
            ],
            [
              11.562372,
              48.150586
            ]
          ]
        ]
      }
    },
    {
      "type": "Feature",
      "properties": {
        "id": "585caff9-ba29-4315-ac77-917f6c960b1c",
        "externalId": "BLDG-009",
        "name": "Englischer Garten Office",
        "address": "Maximilianstraße 36, District 5",
        "city": "Munich",
        "buildingType": "Commercial Office",
        "yearBuilt": 2005,
        "floors": 17,
        "heightM": 59.82,
        "squareFootage": 111519.99,
        "annualRent": 3830570.6,
        "operatingExpenses": 1141098.9,
        "vacancyRate": 0.1334,
        "rentalYield": 0.0414,
        "energyEfficiencyRating": "E",
        "treeCanopyPercentage": 39.59,
        "surfaceTemperature": 26.6,
        "latitude": 48.117207,
        "longitude": 11.571609
      },
      "geometry": {
        "type": "Polygon",
        "coordinates": [
          [
            [
              11.571429,
              48.117027
            ],
            [
              11.571789,
              48.117027
            ],
            [
              11.571789,
              48.117387
            ],
            [
              11.571429,
              48.117387
            ],
            [
              11.571429,
              48.117027
            ]
          ]
        ]
      }
    },
    {
      "type": "Feature",
      "properties": {
        "id": "51d3e4a9-5aa9-46a1-a08c-de40196fe34d",
        "externalId": "BLDG-010",
        "name": "Karlsplatz Corporate",
        "address": "Maximilianstraße 40, District 1",
        "city": "Munich",
        "buildingType": "IT Park",
        "yearBuilt": 2012,
        "floors": 16,
        "heightM": 55.49,
        "squareFootage": 93640.1,
        "annualRent": 2791294.16,
        "operatingExpenses": 709734.59,
        "vacancyRate": 0.0604,
        "rentalYield": 0.0583,
        "energyEfficiencyRating": "E",
        "treeCanopyPercentage": 20.0,
        "surfaceTemperature": 29.6,
        "latitude": 48.131752,
        "longitude": 11.59016
      },
      "geometry": {
        "type": "Polygon",
        "coordinates": [
          [
            [
              11.58998,
              48.131572
            ],
            [
              11.59034,
              48.131572
            ],
            [
              11.59034,
              48.131932
            ],
            [
              11.58998,
              48.131932
            ],
            [
              11.58998,
              48.131572
            ]
          ]
        ]
      }
    },
    {
      "type": "Feature",
      "properties": {
        "id": "4b620382-be8d-4999-839a-1e69bfc20736",
        "externalId": "BLDG-011",
        "name": "Arabellapark Tower",
        "address": "Maximilianstraße 44, District 2",
        "city": "Munich",
        "buildingType": "Mixed-Use Commercial",
        "yearBuilt": 2011,
        "floors": 9,
        "heightM": 30.95,
        "squareFootage": 106123.48,
        "annualRent": 4251306.34,
        "operatingExpenses": 1013025.73,
        "vacancyRate": 0.1307,
        "rentalYield": 0.0451,
        "energyEfficiencyRating": "B",
        "treeCanopyPercentage": 21.12,
        "surfaceTemperature": 28.8,
        "latitude": 48.140377,
        "longitude": 11.581201
      },
      "geometry": {
        "type": "Polygon",
        "coordinates": [
          [
            [
              11.581021,
              48.140197
            ],
            [
              11.581381,
              48.140197
            ],
            [
              11.581381,
              48.140557
            ],
            [
              11.581021,
              48.140557
            ],
            [
              11.581021,
              48.140197
            ]
          ]
        ]
      }
    },
    {
      "type": "Feature",
      "properties": {
        "id": "18175de1-638f-426c-8a6a-554d39d4e198",
        "externalId": "BLDG-012",
        "name": "Haidhausen Hub",
        "address": "Maximilianstraße 48, District 3",
        "city": "Munich",
        "buildingType": "Mixed-Use Commercial",
        "yearBuilt": 2000,
        "floors": 27,
        "heightM": 96.3,
        "squareFootage": 203497.48,
        "annualRent": 7777427.91,
        "operatingExpenses": 2583601.65,
        "vacancyRate": 0.1297,
        "rentalYield": 0.04,
        "energyEfficiencyRating": "B",
        "treeCanopyPercentage": 19.83,
        "surfaceTemperature": 29.6,
        "latitude": 48.137016,
        "longitude": 11.558875
      },
      "geometry": {
        "type": "Polygon",
        "coordinates": [
          [
            [
              11.558695,
              48.136836
            ],
            [
              11.559055,
              48.136836
            ],
            [
              11.559055,
              48.137196
            ],
            [
              11.558695,
              48.137196
            ],
            [
              11.558695,
              48.136836
            ]
          ]
        ]
      }
    },
    {
      "type": "Feature",
      "properties": {
        "id": "19adef65-a51f-45bb-8c16-a78e08eed58e",
        "externalId": "BLDG-013",
        "name": "Olympia Business Center",
        "address": "Maximilianstraße 52, District 4",
        "city": "Munich",
        "buildingType": "IT Park",
        "yearBuilt": 2003,
        "floors": 27,
        "heightM": 96.43,
        "squareFootage": 287245.17,
        "annualRent": 8933911.53,
        "operatingExpenses": 2928754.97,
        "vacancyRate": 0.0538,
        "rentalYield": 0.0618,
        "energyEfficiencyRating": "D",
        "treeCanopyPercentage": 40.17,
        "surfaceTemperature": 26.4,
        "latitude": 48.156401,
        "longitude": 11.593125
      },
      "geometry": {
        "type": "Polygon",
        "coordinates": [
          [
            [
              11.592945,
              48.156221
            ],
            [
              11.593305,
              48.156221
            ],
            [
              11.593305,
              48.156581
            ],
            [
              11.592945,
              48.156581
            ],
            [
              11.592945,
              48.156221
            ]
          ]
        ]
      }
    },
    {
      "type": "Feature",
      "properties": {
        "id": "4d00f690-6037-4aff-909e-576cf6f23910",
        "externalId": "BLDG-014",
        "name": "Laimer Würfel",
        "address": "Maximilianstraße 56, District 5",
        "city": "Munich",
        "buildingType": "Retail Complex",
        "yearBuilt": 2008,
        "floors": 30,
        "heightM": 105.72,
        "squareFootage": 205057.43,
        "annualRent": 7199045.15,
        "operatingExpenses": 1987779.71,
        "vacancyRate": 0.0568,
        "rentalYield": 0.0485,
        "energyEfficiencyRating": "A",
        "treeCanopyPercentage": 20.61,
        "surfaceTemperature": 30.2,
        "latitude": 48.122339,
        "longitude": 11.571891
      },
      "geometry": {
        "type": "Polygon",
        "coordinates": [
          [
            [
              11.571711,
              48.122159
            ],
            [
              11.572071,
              48.122159
            ],
            [
              11.572071,
              48.122519
            ],
            [
              11.571711,
              48.122519
            ],
            [
              11.571711,
              48.122159
            ]
          ]
        ]
      }
    },
    {
      "type": "Feature",
      "properties": {
        "id": "eb51dfd2-db90-4d56-856f-2bd3d3b2d5b8",
        "externalId": "BLDG-015",
        "name": "Nymphenburg Plaza",
        "address": "Maximilianstraße 60, District 1",
        "city": "Munich",
        "buildingType": "Commercial Office",
        "yearBuilt": 2002,
        "floors": 29,
        "heightM": 100.72,
        "squareFootage": 293191.62,
        "annualRent": 12894399.59,
        "operatingExpenses": 2820023.53,
        "vacancyRate": 0.0393,
        "rentalYield": 0.0562,
        "energyEfficiencyRating": "B",
        "treeCanopyPercentage": 23.21,
        "surfaceTemperature": 29.7,
        "latitude": 48.136654,
        "longitude": 11.582772
      },
      "geometry": {
        "type": "Polygon",
        "coordinates": [
          [
            [
              11.582592,
              48.136474
            ],
            [
              11.582952,
              48.136474
            ],
            [
              11.582952,
              48.136834
            ],
            [
              11.582592,
              48.136834
            ],
            [
              11.582592,
              48.136474
            ]
          ]
        ]
      }
    },
    {
      "type": "Feature",
      "properties": {
        "id": "bc035b22-ca83-4e32-bd3c-e4ee3cabf927",
        "externalId": "BLDG-016",
        "name": "Bavariapark Office",
        "address": "Maximilianstraße 64, District 2",
        "city": "Munich",
        "buildingType": "Mixed-Use Commercial",
        "yearBuilt": 2004,
        "floors": 13,
        "heightM": 44.81,
        "squareFootage": 88031.37,
        "annualRent": 3471099.21,
        "operatingExpenses": 956078.69,
        "vacancyRate": 0.0274,
        "rentalYield": 0.0455,
        "energyEfficiencyRating": "C",
        "treeCanopyPercentage": 40.77,
        "surfaceTemperature": 27.4,
        "latitude": 48.132709,
        "longitude": 11.589595
      },
      "geometry": {
        "type": "Polygon",
        "coordinates": [
          [
            [
              11.589415,
              48.132529
            ],
            [
              11.589775,
              48.132529
            ],
            [
              11.589775,
              48.132889
            ],
            [
              11.589415,
              48.132889
            ],
            [
              11.589415,
              48.132529
            ]
          ]
        ]
      }
    },
    {
      "type": "Feature",
      "properties": {
        "id": "acc93b41-893f-43bd-8f27-c0a9c14de3b6",
        "externalId": "BLDG-017",
        "name": "Donnersberger Center",
        "address": "Maximilianstraße 68, District 3",
        "city": "Munich",
        "buildingType": "Commercial Office",
        "yearBuilt": 2011,
        "floors": 20,
        "heightM": 70.0,
        "squareFootage": 135830.73,
        "annualRent": 3631287.18,
        "operatingExpenses": 871584.99,
        "vacancyRate": 0.0887,
        "rentalYield": 0.0402,
        "energyEfficiencyRating": "C",
        "treeCanopyPercentage": 26.57,
        "surfaceTemperature": 28.3,
        "latitude": 48.15565,
        "longitude": 11.570555
      },
      "geometry": {
        "type": "Polygon",
        "coordinates": [
          [
            [
              11.570375,
              48.15547
            ],
            [
              11.570735,
              48.15547
            ],
            [
              11.570735,
              48.15583
            ],
            [
              11.570375,
              48.15583
            ],
            [
              11.570375,
              48.15547
            ]
          ]
        ]
      }
    },
    {
      "type": "Feature",
      "properties": {
        "id": "256b67d2-4f17-42ec-9680-6c177cb6afb6",
        "externalId": "BLDG-018",
        "name": "Werksviertel IT Park",
        "address": "Maximilianstraße 72, District 4",
        "city": "Munich",
        "buildingType": "Mixed-Use Commercial",
        "yearBuilt": 2021,
        "floors": 20,
        "heightM": 70.79,
        "squareFootage": 179213.43,
        "annualRent": 6943528.87,
        "operatingExpenses": 1883029.07,
        "vacancyRate": 0.0313,
        "rentalYield": 0.0628,
        "energyEfficiencyRating": "D",
        "treeCanopyPercentage": 43.1,
        "surfaceTemperature": 27.2,
        "latitude": 48.1176,
        "longitude": 11.588069
      },
      "geometry": {
        "type": "Polygon",
        "coordinates": [
          [
            [
              11.587889,
              48.11742
            ],
            [
              11.588249,
              48.11742
            ],
            [
              11.588249,
              48.11778
            ],
            [
              11.587889,
              48.11778
            ],
            [
              11.587889,
              48.11742
            ]
          ]
        ]
      }
    },
    {
      "type": "Feature",
      "properties": {
        "id": "c8e37b02-f512-434b-b45e-ed0feb942e2a",
        "externalId": "BLDG-019",
        "name": "Arnulfpark Chambers",
        "address": "Maximilianstraße 76, District 5",
        "city": "Munich",
        "buildingType": "Mixed-Use Commercial",
        "yearBuilt": 2001,
        "floors": 23,
        "heightM": 82.49,
        "squareFootage": 137249.4,
        "annualRent": 3444106.0,
        "operatingExpenses": 873483.29,
        "vacancyRate": 0.1343,
        "rentalYield": 0.0402,
        "energyEfficiencyRating": "C",
        "treeCanopyPercentage": 15.1,
        "surfaceTemperature": 29.6,
        "latitude": 48.12467,
        "longitude": 11.557125
      },
      "geometry": {
        "type": "Polygon",
        "coordinates": [
          [
            [
              11.556945,
              48.12449
            ],
            [
              11.557305,
              48.12449
            ],
            [
              11.557305,
              48.12485
            ],
            [
              11.556945,
              48.12485
            ],
            [
              11.556945,
              48.12449
            ]
          ]
        ]
      }
    },
    {
      "type": "Feature",
      "properties": {
        "id": "c9e080b5-43d3-4acc-b754-89a3b687f40b",
        "externalId": "BLDG-020",
        "name": "Moosach Heights",
        "address": "Maximilianstraße 80, District 1",
        "city": "Munich",
        "buildingType": "Commercial Office",
        "yearBuilt": 2007,
        "floors": 17,
        "heightM": 58.89,
        "squareFootage": 201281.01,
        "annualRent": 6189591.91,
        "operatingExpenses": 1851224.63,
        "vacancyRate": 0.0752,
        "rentalYield": 0.0389,
        "energyEfficiencyRating": "E",
        "treeCanopyPercentage": 17.62,
        "surfaceTemperature": 30.0,
        "latitude": 48.145128,
        "longitude": 11.569457
      },
      "geometry": {
        "type": "Polygon",
        "coordinates": [
          [
            [
              11.569277,
              48.144948
            ],
            [
              11.569637,
              48.144948
            ],
            [
              11.569637,
              48.145308
            ],
            [
              11.569277,
              48.145308
            ],
            [
              11.569277,
              48.144948
            ]
          ]
        ]
      }
    },
    {
      "type": "Feature",
      "properties": {
        "id": "e664cf09-e281-499a-812e-cccdca045f38",
        "externalId": "BLDG-021",
        "name": "Theresienhöhe Tower",
        "address": "Maximilianstraße 84, District 2",
        "city": "Munich",
        "buildingType": "Mixed-Use Commercial",
        "yearBuilt": 2018,
        "floors": 20,
        "heightM": 70.23,
        "squareFootage": 209190.43,
        "annualRent": 8516047.94,
        "operatingExpenses": 2798141.61,
        "vacancyRate": 0.0496,
        "rentalYield": 0.054,
        "energyEfficiencyRating": "D",
        "treeCanopyPercentage": 11.72,
        "surfaceTemperature": 31.3,
        "latitude": 48.130537,
        "longitude": 11.567726
      },
      "geometry": {
        "type": "Polygon",
        "coordinates": [
          [
            [
              11.567546,
              48.130357
            ],
            [
              11.567906,
              48.130357
            ],
            [
              11.567906,
              48.130717
            ],
            [
              11.567546,
              48.130717
            ],
            [
              11.567546,
              48.130357
            ]
          ]
        ]
      }
    },
    {
      "type": "Feature",
      "properties": {
        "id": "40473ac8-3797-482a-a599-4550d021f1a1",
        "externalId": "BLDG-022",
        "name": "Riem Corporate Center",
        "address": "Maximilianstraße 88, District 3",
        "city": "Munich",
        "buildingType": "Retail Complex",
        "yearBuilt": 2000,
        "floors": 6,
        "heightM": 20.08,
        "squareFootage": 64614.68,
        "annualRent": 2705054.22,
        "operatingExpenses": 846340.23,
        "vacancyRate": 0.1416,
        "rentalYield": 0.0466,
        "energyEfficiencyRating": "D",
        "treeCanopyPercentage": 12.31,
        "surfaceTemperature": 30.1,
        "latitude": 48.127876,
        "longitude": 11.591943
      },
      "geometry": {
        "type": "Polygon",
        "coordinates": [
          [
            [
              11.591763,
              48.127696
            ],
            [
              11.592123,
              48.127696
            ],
            [
              11.592123,
              48.128056
            ],
            [
              11.591763,
              48.128056
            ],
            [
              11.591763,
              48.127696
            ]
          ]
        ]
      }
    },
    {
      "type": "Feature",
      "properties": {
        "id": "96aa0b95-425b-4ef6-bb11-c552b67f7884",
        "externalId": "BLDG-023",
        "name": "Lehel Executive Hub",
        "address": "Maximilianstraße 92, District 4",
        "city": "Munich",
        "buildingType": "Retail Complex",
        "yearBuilt": 2017,
        "floors": 11,
        "heightM": 38.74,
        "squareFootage": 117433.77,
        "annualRent": 3986047.04,
        "operatingExpenses": 1128077.42,
        "vacancyRate": 0.1263,
        "rentalYield": 0.047,
        "energyEfficiencyRating": "B",
        "treeCanopyPercentage": 29.16,
        "surfaceTemperature": 29.2,
        "latitude": 48.139721,
        "longitude": 11.581418
      },
      "geometry": {
        "type": "Polygon",
        "coordinates": [
          [
            [
              11.581238,
              48.139541
            ],
            [
              11.581598,
              48.139541
            ],
            [
              11.581598,
              48.139901
            ],
            [
              11.581238,
              48.139901
            ],
            [
              11.581238,
              48.139541
            ]
          ]
        ]
      }
    },
    {
      "type": "Feature",
      "properties": {
        "id": "8e8047cf-7a5e-4711-b747-6c039639e46a",
        "externalId": "BLDG-024",
        "name": "Obersendling Park",
        "address": "Maximilianstraße 96, District 5",
        "city": "Munich",
        "buildingType": "IT Park",
        "yearBuilt": 2000,
        "floors": 18,
        "heightM": 64.59,
        "squareFootage": 149388.82,
        "annualRent": 5858152.53,
        "operatingExpenses": 1906633.78,
        "vacancyRate": 0.1206,
        "rentalYield": 0.0473,
        "energyEfficiencyRating": "A",
        "treeCanopyPercentage": 25.84,
        "surfaceTemperature": 29.5,
        "latitude": 48.122724,
        "longitude": 11.558701
      },
      "geometry": {
        "type": "Polygon",
        "coordinates": [
          [
            [
              11.558521,
              48.122544
            ],
            [
              11.558881,
              48.122544
            ],
            [
              11.558881,
              48.122904
            ],
            [
              11.558521,
              48.122904
            ],
            [
              11.558521,
              48.122544
            ]
          ]
        ]
      }
    },
    {
      "type": "Feature",
      "properties": {
        "id": "97e19082-bdc6-4bab-90fe-7f9ad4e736de",
        "externalId": "BLDG-025",
        "name": "Münchner Freiheit Center",
        "address": "Maximilianstraße 100, District 1",
        "city": "Munich",
        "buildingType": "Retail Complex",
        "yearBuilt": 2020,
        "floors": 23,
        "heightM": 79.61,
        "squareFootage": 122542.13,
        "annualRent": 5279479.83,
        "operatingExpenses": 1822817.39,
        "vacancyRate": 0.0944,
        "rentalYield": 0.0559,
        "energyEfficiencyRating": "A",
        "treeCanopyPercentage": 40.56,
        "surfaceTemperature": 28.0,
        "latitude": 48.127532,
        "longitude": 11.578447
      },
      "geometry": {
        "type": "Polygon",
        "coordinates": [
          [
            [
              11.578267,
              48.127352
            ],
            [
              11.578627,
              48.127352
            ],
            [
              11.578627,
              48.127712
            ],
            [
              11.578267,
              48.127712
            ],
            [
              11.578267,
              48.127352
            ]
          ]
        ]
      }
    },
    {
      "type": "Feature",
      "properties": {
        "id": "7a889031-6382-4dba-9f68-f6c17554daf9",
        "externalId": "BLDG-026",
        "name": "Neuhausen Office Hub",
        "address": "Maximilianstraße 104, District 2",
        "city": "Munich",
        "buildingType": "Retail Complex",
        "yearBuilt": 2011,
        "floors": 10,
        "heightM": 35.81,
        "squareFootage": 78464.71,
        "annualRent": 3432375.66,
        "operatingExpenses": 1067586.08,
        "vacancyRate": 0.045,
        "rentalYield": 0.0366,
        "energyEfficiencyRating": "B",
        "treeCanopyPercentage": 17.28,
        "surfaceTemperature": 30.1,
        "latitude": 48.148234,
        "longitude": 11.575084
      },
      "geometry": {
        "type": "Polygon",
        "coordinates": [
          [
            [
              11.574904,
              48.148054
            ],
            [
              11.575264,
              48.148054
            ],
            [
              11.575264,
              48.148414
            ],
            [
              11.574904,
              48.148414
            ],
            [
              11.574904,
              48.148054
            ]
          ]
        ]
      }
    },
    {
      "type": "Feature",
      "properties": {
        "id": "ee374202-47eb-4276-b63c-62fff4c1bebc",
        "externalId": "BLDG-027",
        "name": "Feldmoching Tech Center",
        "address": "Maximilianstraße 108, District 3",
        "city": "Munich",
        "buildingType": "Commercial Office",
        "yearBuilt": 2009,
        "floors": 14,
        "heightM": 50.54,
        "squareFootage": 133621.0,
        "annualRent": 5531116.44,
        "operatingExpenses": 1382209.33,
        "vacancyRate": 0.0803,
        "rentalYield": 0.0647,
        "energyEfficiencyRating": "C",
        "treeCanopyPercentage": 19.59,
        "surfaceTemperature": 28.9,
        "latitude": 48.135442,
        "longitude": 11.592371
      },
      "geometry": {
        "type": "Polygon",
        "coordinates": [
          [
            [
              11.592191,
              48.135262
            ],
            [
              11.592551,
              48.135262
            ],
            [
              11.592551,
              48.135622
            ],
            [
              11.592191,
              48.135622
            ],
            [
              11.592191,
              48.135262
            ]
          ]
        ]
      }
    },
    {
      "type": "Feature",
      "properties": {
        "id": "8a5ab4eb-f9cd-44a5-b10a-3a6c841f6bdc",
        "externalId": "BLDG-028",
        "name": "Trudering Commercial Suite",
        "address": "Maximilianstraße 112, District 4",
        "city": "Munich",
        "buildingType": "Retail Complex",
        "yearBuilt": 1998,
        "floors": 7,
        "heightM": 23.52,
        "squareFootage": 57553.63,
        "annualRent": 1956681.22,
        "operatingExpenses": 508618.53,
        "vacancyRate": 0.0951,
        "rentalYield": 0.0515,
        "energyEfficiencyRating": "A",
        "treeCanopyPercentage": 32.15,
        "surfaceTemperature": 28.7,
        "latitude": 48.150102,
        "longitude": 11.56004
      },
      "geometry": {
        "type": "Polygon",
        "coordinates": [
          [
            [
              11.55986,
              48.149922
            ],
            [
              11.56022,
              48.149922
            ],
            [
              11.56022,
              48.150282
            ],
            [
              11.55986,
              48.150282
            ],
            [
              11.55986,
              48.149922
            ]
          ]
        ]
      }
    },
    {
      "type": "Feature",
      "properties": {
        "id": "d93360c6-e145-4bee-b362-8a3961a0515a",
        "externalId": "BLDG-029",
        "name": "Sendlinger Tor Plaza",
        "address": "Maximilianstraße 116, District 5",
        "city": "Munich",
        "buildingType": "Commercial Office",
        "yearBuilt": 2004,
        "floors": 9,
        "heightM": 32.18,
        "squareFootage": 64081.74,
        "annualRent": 1810057.0,
        "operatingExpenses": 532355.97,
        "vacancyRate": 0.1181,
        "rentalYield": 0.0483,
        "energyEfficiencyRating": "A",
        "treeCanopyPercentage": 9.32,
        "surfaceTemperature": 31.2,
        "latitude": 48.151517,
        "longitude": 11.59041
      },
      "geometry": {
        "type": "Polygon",
        "coordinates": [
          [
            [
              11.59023,
              48.151337
            ],
            [
              11.59059,
              48.151337
            ],
            [
              11.59059,
              48.151697
            ],
            [
              11.59023,
              48.151697
            ],
            [
              11.59023,
              48.151337
            ]
          ]
        ]
      }
    },
    {
      "type": "Feature",
      "properties": {
        "id": "38d74cfe-0553-42d4-9bf0-3caa16678440",
        "externalId": "BLDG-030",
        "name": "Prinzregenten Tower",
        "address": "Maximilianstraße 120, District 1",
        "city": "Munich",
        "buildingType": "Retail Complex",
        "yearBuilt": 2008,
        "floors": 24,
        "heightM": 83.7,
        "squareFootage": 255105.38,
        "annualRent": 8991528.94,
        "operatingExpenses": 2654357.17,
        "vacancyRate": 0.1319,
        "rentalYield": 0.0579,
        "energyEfficiencyRating": "D",
        "treeCanopyPercentage": 20.32,
        "surfaceTemperature": 28.6,
        "latitude": 48.145923,
        "longitude": 11.568755
      },
      "geometry": {
        "type": "Polygon",
        "coordinates": [
          [
            [
              11.568575,
              48.145743
            ],
            [
              11.568935,
              48.145743
            ],
            [
              11.568935,
              48.146103
            ],
            [
              11.568575,
              48.146103
            ],
            [
              11.568575,
              48.145743
            ]
          ]
        ]
      }
    },
    {
      "type": "Feature",
      "properties": {
        "id": "b5210e26-9574-43e3-a61d-dca047ac7227",
        "externalId": "BLDG-031",
        "name": "Isarvorstadt Chambers",
        "address": "Maximilianstraße 124, District 2",
        "city": "Munich",
        "buildingType": "Retail Complex",
        "yearBuilt": 2008,
        "floors": 12,
        "heightM": 41.62,
        "squareFootage": 72429.36,
        "annualRent": 3208685.28,
        "operatingExpenses": 1107561.31,
        "vacancyRate": 0.0866,
        "rentalYield": 0.0397,
        "energyEfficiencyRating": "D",
        "treeCanopyPercentage": 17.9,
        "surfaceTemperature": 29.2,
        "latitude": 48.141826,
        "longitude": 11.586501
      },
      "geometry": {
        "type": "Polygon",
        "coordinates": [
          [
            [
              11.586321,
              48.141646
            ],
            [
              11.586681,
              48.141646
            ],
            [
              11.586681,
              48.142006
            ],
            [
              11.586321,
              48.142006
            ],
            [
              11.586321,
              48.141646
            ]
          ]
        ]
      }
    },
    {
      "type": "Feature",
      "properties": {
        "id": "2abddb5a-a7eb-4baa-8571-10558abb333b",
        "externalId": "BLDG-032",
        "name": "Ludwigstraße Executive",
        "address": "Maximilianstraße 128, District 3",
        "city": "Munich",
        "buildingType": "Retail Complex",
        "yearBuilt": 1999,
        "floors": 30,
        "heightM": 104.56,
        "squareFootage": 308922.26,
        "annualRent": 7937909.94,
        "operatingExpenses": 2609389.59,
        "vacancyRate": 0.0652,
        "rentalYield": 0.038,
        "energyEfficiencyRating": "C",
        "treeCanopyPercentage": 9.35,
        "surfaceTemperature": 30.0,
        "latitude": 48.139467,
        "longitude": 11.560222
      },
      "geometry": {
        "type": "Polygon",
        "coordinates": [
          [
            [
              11.560042,
              48.139287
            ],
            [
              11.560402,
              48.139287
            ],
            [
              11.560402,
              48.139647
            ],
            [
              11.560042,
              48.139647
            ],
            [
              11.560042,
              48.139287
            ]
          ]
        ]
      }
    },
    {
      "type": "Feature",
      "properties": {
        "id": "bd2cf9cc-4778-4451-ad5f-712d7157fa1f",
        "externalId": "BLDG-033",
        "name": "Bogenhausen Park Place",
        "address": "Maximilianstraße 132, District 4",
        "city": "Munich",
        "buildingType": "IT Park",
        "yearBuilt": 2013,
        "floors": 22,
        "heightM": 76.9,
        "squareFootage": 192390.72,
        "annualRent": 6296816.4,
        "operatingExpenses": 1613322.59,
        "vacancyRate": 0.0626,
        "rentalYield": 0.0487,
        "energyEfficiencyRating": "B",
        "treeCanopyPercentage": 32.34,
        "surfaceTemperature": 28.2,
        "latitude": 48.146673,
        "longitude": 11.577828
      },
      "geometry": {
        "type": "Polygon",
        "coordinates": [
          [
            [
              11.577648,
              48.146493
            ],
            [
              11.578008,
              48.146493
            ],
            [
              11.578008,
              48.146853
            ],
            [
              11.577648,
              48.146853
            ],
            [
              11.577648,
              48.146493
            ]
          ]
        ]
      }
    },
    {
      "type": "Feature",
      "properties": {
        "id": "92c07f00-24bc-45ac-bed4-8dfd354ecd05",
        "externalId": "BLDG-034",
        "name": "Glockenbach Corporate",
        "address": "Maximilianstraße 136, District 5",
        "city": "Munich",
        "buildingType": "IT Park",
        "yearBuilt": 2016,
        "floors": 5,
        "heightM": 17.35,
        "squareFootage": 40408.76,
        "annualRent": 1116589.16,
        "operatingExpenses": 293932.69,
        "vacancyRate": 0.0265,
        "rentalYield": 0.0624,
        "energyEfficiencyRating": "D",
        "treeCanopyPercentage": 30.1,
        "surfaceTemperature": 28.9,
        "latitude": 48.127285,
        "longitude": 11.570865
      },
      "geometry": {
        "type": "Polygon",
        "coordinates": [
          [
            [
              11.570685,
              48.127105
            ],
            [
              11.571045,
              48.127105
            ],
            [
              11.571045,
              48.127465
            ],
            [
              11.570685,
              48.127465
            ],
            [
              11.570685,
              48.127105
            ]
          ]
        ]
      }
    },
    {
      "type": "Feature",
      "properties": {
        "id": "7e0f100b-7853-4ee0-97ba-0f5fcc49ad9e",
        "externalId": "BLDG-035",
        "name": "Max-Weber-Platz Forum",
        "address": "Maximilianstraße 140, District 1",
        "city": "Munich",
        "buildingType": "IT Park",
        "yearBuilt": 1998,
        "floors": 15,
        "heightM": 52.76,
        "squareFootage": 102137.98,
        "annualRent": 2967140.07,
        "operatingExpenses": 861931.21,
        "vacancyRate": 0.0213,
        "rentalYield": 0.0514,
        "energyEfficiencyRating": "B",
        "treeCanopyPercentage": 38.32,
        "surfaceTemperature": 27.6,
        "latitude": 48.147518,
        "longitude": 11.562296
      },
      "geometry": {
        "type": "Polygon",
        "coordinates": [
          [
            [
              11.562116,
              48.147338
            ],
            [
              11.562476,
              48.147338
            ],
            [
              11.562476,
              48.147698
            ],
            [
              11.562116,
              48.147698
            ],
            [
              11.562116,
              48.147338
            ]
          ]
        ]
      }
    },
    {
      "type": "Feature",
      "properties": {
        "id": "84eb0852-152f-43c3-8e43-35a38378a575",
        "externalId": "BLDG-036",
        "name": "Schwabing Nord Center",
        "address": "Maximilianstraße 144, District 2",
        "city": "Munich",
        "buildingType": "Mixed-Use Commercial",
        "yearBuilt": 1998,
        "floors": 28,
        "heightM": 99.01,
        "squareFootage": 237003.84,
        "annualRent": 9849070.93,
        "operatingExpenses": 2340912.11,
        "vacancyRate": 0.0911,
        "rentalYield": 0.0514,
        "energyEfficiencyRating": "D",
        "treeCanopyPercentage": 16.56,
        "surfaceTemperature": 30.0,
        "latitude": 48.143598,
        "longitude": 11.560591
      },
      "geometry": {
        "type": "Polygon",
        "coordinates": [
          [
            [
              11.560411,
              48.143418
            ],
            [
              11.560771,
              48.143418
            ],
            [
              11.560771,
              48.143778
            ],
            [
              11.560411,
              48.143778
            ],
            [
              11.560411,
              48.143418
            ]
          ]
        ]
      }
    },
    {
      "type": "Feature",
      "properties": {
        "id": "f93626ab-818b-4fb8-840e-5f951070e2f3",
        "externalId": "BLDG-037",
        "name": "Freimann Tech Square",
        "address": "Maximilianstraße 148, District 3",
        "city": "Munich",
        "buildingType": "IT Park",
        "yearBuilt": 2007,
        "floors": 30,
        "heightM": 104.62,
        "squareFootage": 274328.14,
        "annualRent": 11311526.11,
        "operatingExpenses": 2501135.34,
        "vacancyRate": 0.062,
        "rentalYield": 0.0442,
        "energyEfficiencyRating": "A",
        "treeCanopyPercentage": 27.54,
        "surfaceTemperature": 29.7,
        "latitude": 48.133816,
        "longitude": 11.576367
      },
      "geometry": {
        "type": "Polygon",
        "coordinates": [
          [
            [
              11.576187,
              48.133636
            ],
            [
              11.576547,
              48.133636
            ],
            [
              11.576547,
              48.133996
            ],
            [
              11.576187,
              48.133996
            ],
            [
              11.576187,
              48.133636
            ]
          ]
        ]
      }
    },
    {
      "type": "Feature",
      "properties": {
        "id": "a07095a4-0a2f-445e-ac7b-f6b6310df57b",
        "externalId": "BLDG-038",
        "name": "Perlach Business Hub",
        "address": "Maximilianstraße 152, District 4",
        "city": "Munich",
        "buildingType": "Retail Complex",
        "yearBuilt": 2012,
        "floors": 7,
        "heightM": 24.16,
        "squareFootage": 65107.13,
        "annualRent": 2062723.53,
        "operatingExpenses": 588415.96,
        "vacancyRate": 0.1053,
        "rentalYield": 0.0606,
        "energyEfficiencyRating": "C",
        "treeCanopyPercentage": 38.68,
        "surfaceTemperature": 28.1,
        "latitude": 48.120047,
        "longitude": 11.576011
      },
      "geometry": {
        "type": "Polygon",
        "coordinates": [
          [
            [
              11.575831,
              48.119867
            ],
            [
              11.576191,
              48.119867
            ],
            [
              11.576191,
              48.120227
            ],
            [
              11.575831,
              48.120227
            ],
            [
              11.575831,
              48.119867
            ]
          ]
        ]
      }
    },
    {
      "type": "Feature",
      "properties": {
        "id": "6bb07f45-a801-4035-b3a2-354d16b3a14c",
        "externalId": "BLDG-039",
        "name": "Hadern Medical & Office",
        "address": "Maximilianstraße 156, District 5",
        "city": "Munich",
        "buildingType": "Mixed-Use Commercial",
        "yearBuilt": 2008,
        "floors": 11,
        "heightM": 38.43,
        "squareFootage": 92112.42,
        "annualRent": 2773839.23,
        "operatingExpenses": 790237.71,
        "vacancyRate": 0.1398,
        "rentalYield": 0.038,
        "energyEfficiencyRating": "B",
        "treeCanopyPercentage": 7.27,
        "surfaceTemperature": 30.8,
        "latitude": 48.131872,
        "longitude": 11.567534
      },
      "geometry": {
        "type": "Polygon",
        "coordinates": [
          [
            [
              11.567354,
              48.131692
            ],
            [
              11.567714,
              48.131692
            ],
            [
              11.567714,
              48.132052
            ],
            [
              11.567354,
              48.132052
            ],
            [
              11.567354,
              48.131692
            ]
          ]
        ]
      }
    },
    {
      "type": "Feature",
      "properties": {
        "id": "02997500-3b95-40e3-9490-863419842fb5",
        "externalId": "BLDG-040",
        "name": "Forstenrieder Plaza",
        "address": "Maximilianstraße 160, District 1",
        "city": "Munich",
        "buildingType": "Mixed-Use Commercial",
        "yearBuilt": 2003,
        "floors": 16,
        "heightM": 56.89,
        "squareFootage": 144018.93,
        "annualRent": 5448408.37,
        "operatingExpenses": 1567046.47,
        "vacancyRate": 0.1414,
        "rentalYield": 0.0446,
        "energyEfficiencyRating": "A",
        "treeCanopyPercentage": 38.73,
        "surfaceTemperature": 27.0,
        "latitude": 48.120816,
        "longitude": 11.564106
      },
      "geometry": {
        "type": "Polygon",
        "coordinates": [
          [
            [
              11.563926,
              48.120636
            ],
            [
              11.564286,
              48.120636
            ],
            [
              11.564286,
              48.120996
            ],
            [
              11.563926,
              48.120996
            ],
            [
              11.563926,
              48.120636
            ]
          ]
        ]
      }
    },
    {
      "type": "Feature",
      "properties": {
        "id": "ce52cf19-ac6e-456b-8dcb-94f21c7a8180",
        "externalId": "BLDG-041",
        "name": "Solln Commercial Lodge",
        "address": "Maximilianstraße 164, District 2",
        "city": "Munich",
        "buildingType": "IT Park",
        "yearBuilt": 2002,
        "floors": 14,
        "heightM": 50.9,
        "squareFootage": 113910.12,
        "annualRent": 3495237.6,
        "operatingExpenses": 984466.16,
        "vacancyRate": 0.0796,
        "rentalYield": 0.0592,
        "energyEfficiencyRating": "E",
        "treeCanopyPercentage": 42.23,
        "surfaceTemperature": 27.3,
        "latitude": 48.156757,
        "longitude": 11.574692
      },
      "geometry": {
        "type": "Polygon",
        "coordinates": [
          [
            [
              11.574512,
              48.156577
            ],
            [
              11.574872,
              48.156577
            ],
            [
              11.574872,
              48.156937
            ],
            [
              11.574512,
              48.156937
            ],
            [
              11.574512,
              48.156577
            ]
          ]
        ]
      }
    },
    {
      "type": "Feature",
      "properties": {
        "id": "43428910-c11f-48cb-90fa-4b9a79200845",
        "externalId": "BLDG-042",
        "name": "Aubing Innovation Park",
        "address": "Maximilianstraße 168, District 3",
        "city": "Munich",
        "buildingType": "Retail Complex",
        "yearBuilt": 1999,
        "floors": 9,
        "heightM": 31.45,
        "squareFootage": 48832.24,
        "annualRent": 1649526.34,
        "operatingExpenses": 512034.59,
        "vacancyRate": 0.064,
        "rentalYield": 0.0463,
        "energyEfficiencyRating": "C",
        "treeCanopyPercentage": 43.99,
        "surfaceTemperature": 27.6,
        "latitude": 48.128272,
        "longitude": 11.583724
      },
      "geometry": {
        "type": "Polygon",
        "coordinates": [
          [
            [
              11.583544,
              48.128092
            ],
            [
              11.583904,
              48.128092
            ],
            [
              11.583904,
              48.128452
            ],
            [
              11.583544,
              48.128452
            ],
            [
              11.583544,
              48.128092
            ]
          ]
        ]
      }
    },
    {
      "type": "Feature",
      "properties": {
        "id": "b31c244c-3d15-454f-9fd6-73534ea8e086",
        "externalId": "BLDG-043",
        "name": "Allach Business Complex",
        "address": "Maximilianstraße 172, District 4",
        "city": "Munich",
        "buildingType": "Retail Complex",
        "yearBuilt": 2004,
        "floors": 28,
        "heightM": 98.62,
        "squareFootage": 237231.29,
        "annualRent": 5934616.29,
        "operatingExpenses": 2029577.94,
        "vacancyRate": 0.0843,
        "rentalYield": 0.0389,
        "energyEfficiencyRating": "D",
        "treeCanopyPercentage": 7.26,
        "surfaceTemperature": 31.8,
        "latitude": 48.142803,
        "longitude": 11.579734
      },
      "geometry": {
        "type": "Polygon",
        "coordinates": [
          [
            [
              11.579554,
              48.142623
            ],
            [
              11.579914,
              48.142623
            ],
            [
              11.579914,
              48.142983
            ],
            [
              11.579554,
              48.142983
            ],
            [
              11.579554,
              48.142623
            ]
          ]
        ]
      }
    },
    {
      "type": "Feature",
      "properties": {
        "id": "61eda8a2-e226-4db2-bf63-7047f7d61d03",
        "externalId": "BLDG-044",
        "name": "Unterföhring Media Tower",
        "address": "Maximilianstraße 176, District 5",
        "city": "Munich",
        "buildingType": "Commercial Office",
        "yearBuilt": 2018,
        "floors": 6,
        "heightM": 20.82,
        "squareFootage": 55866.81,
        "annualRent": 1508149.85,
        "operatingExpenses": 387112.46,
        "vacancyRate": 0.0683,
        "rentalYield": 0.0452,
        "energyEfficiencyRating": "E",
        "treeCanopyPercentage": 7.07,
        "surfaceTemperature": 31.7,
        "latitude": 48.127913,
        "longitude": 11.576247
      },
      "geometry": {
        "type": "Polygon",
        "coordinates": [
          [
            [
              11.576067,
              48.127733
            ],
            [
              11.576427,
              48.127733
            ],
            [
              11.576427,
              48.128093
            ],
            [
              11.576067,
              48.128093
            ],
            [
              11.576067,
              48.127733
            ]
          ]
        ]
      }
    },
    {
      "type": "Feature",
      "properties": {
        "id": "c3dfef7f-aa34-46a4-a69d-eed35b98ddde",
        "externalId": "BLDG-045",
        "name": "Dornach Logistics & Office",
        "address": "Maximilianstraße 180, District 1",
        "city": "Munich",
        "buildingType": "Retail Complex",
        "yearBuilt": 2003,
        "floors": 16,
        "heightM": 57.23,
        "squareFootage": 95539.67,
        "annualRent": 2521408.67,
        "operatingExpenses": 804923.8,
        "vacancyRate": 0.1149,
        "rentalYield": 0.0488,
        "energyEfficiencyRating": "C",
        "treeCanopyPercentage": 14.91,
        "surfaceTemperature": 30.8,
        "latitude": 48.131048,
        "longitude": 11.592419
      },
      "geometry": {
        "type": "Polygon",
        "coordinates": [
          [
            [
              11.592239,
              48.130868
            ],
            [
              11.592599,
              48.130868
            ],
            [
              11.592599,
              48.131228
            ],
            [
              11.592239,
              48.131228
            ],
            [
              11.592239,
              48.130868
            ]
          ]
        ]
      }
    },
    {
      "type": "Feature",
      "properties": {
        "id": "78fb05be-6c4a-4a84-b176-81be8c23a7c2",
        "externalId": "BLDG-046",
        "name": "Garching Tech Hub",
        "address": "Maximilianstraße 184, District 2",
        "city": "Munich",
        "buildingType": "Commercial Office",
        "yearBuilt": 2002,
        "floors": 13,
        "heightM": 46.09,
        "squareFootage": 70874.03,
        "annualRent": 2287082.38,
        "operatingExpenses": 669172.19,
        "vacancyRate": 0.0603,
        "rentalYield": 0.0605,
        "energyEfficiencyRating": "B",
        "treeCanopyPercentage": 8.92,
        "surfaceTemperature": 30.1,
        "latitude": 48.144158,
        "longitude": 11.572274
      },
      "geometry": {
        "type": "Polygon",
        "coordinates": [
          [
            [
              11.572094,
              48.143978
            ],
            [
              11.572454,
              48.143978
            ],
            [
              11.572454,
              48.144338
            ],
            [
              11.572094,
              48.144338
            ],
            [
              11.572094,
              48.143978
            ]
          ]
        ]
      }
    },
    {
      "type": "Feature",
      "properties": {
        "id": "95203bc3-0df1-40d6-9162-e80da4eb5e30",
        "externalId": "BLDG-047",
        "name": "Martinsried BioCenter",
        "address": "Maximilianstraße 188, District 3",
        "city": "Munich",
        "buildingType": "Retail Complex",
        "yearBuilt": 2015,
        "floors": 29,
        "heightM": 102.21,
        "squareFootage": 281226.91,
        "annualRent": 7711467.27,
        "operatingExpenses": 2584766.07,
        "vacancyRate": 0.0873,
        "rentalYield": 0.0579,
        "energyEfficiencyRating": "A",
        "treeCanopyPercentage": 43.9,
        "surfaceTemperature": 25.8,
        "latitude": 48.132071,
        "longitude": 11.56845
      },
      "geometry": {
        "type": "Polygon",
        "coordinates": [
          [
            [
              11.56827,
              48.131891
            ],
            [
              11.56863,
              48.131891
            ],
            [
              11.56863,
              48.132251
            ],
            [
              11.56827,
              48.132251
            ],
            [
              11.56827,
              48.131891
            ]
          ]
        ]
      }
    },
    {
      "type": "Feature",
      "properties": {
        "id": "3f4d6fcb-5f9a-414a-b718-03b3b744d8fb",
        "externalId": "BLDG-048",
        "name": "Aschheim Business Park",
        "address": "Maximilianstraße 192, District 4",
        "city": "Munich",
        "buildingType": "Commercial Office",
        "yearBuilt": 2018,
        "floors": 4,
        "heightM": 14.78,
        "squareFootage": 22387.42,
        "annualRent": 801228.26,
        "operatingExpenses": 230389.22,
        "vacancyRate": 0.0587,
        "rentalYield": 0.0359,
        "energyEfficiencyRating": "A",
        "treeCanopyPercentage": 19.39,
        "surfaceTemperature": 29.4,
        "latitude": 48.126447,
        "longitude": 11.57405
      },
      "geometry": {
        "type": "Polygon",
        "coordinates": [
          [
            [
              11.57387,
              48.126267
            ],
            [
              11.57423,
              48.126267
            ],
            [
              11.57423,
              48.126627
            ],
            [
              11.57387,
              48.126627
            ],
            [
              11.57387,
              48.126267
            ]
          ]
        ]
      }
    },
    {
      "type": "Feature",
      "properties": {
        "id": "c80a4843-71e0-4b02-9047-3a9597869e0a",
        "externalId": "BLDG-049",
        "name": "Gräfelfing Corporate Campus",
        "address": "Maximilianstraße 196, District 5",
        "city": "Munich",
        "buildingType": "IT Park",
        "yearBuilt": 2007,
        "floors": 21,
        "heightM": 73.09,
        "squareFootage": 182754.69,
        "annualRent": 6157176.0,
        "operatingExpenses": 1322254.84,
        "vacancyRate": 0.0567,
        "rentalYield": 0.0597,
        "energyEfficiencyRating": "D",
        "treeCanopyPercentage": 9.66,
        "surfaceTemperature": 31.7,
        "latitude": 48.151665,
        "longitude": 11.596085
      },
      "geometry": {
        "type": "Polygon",
        "coordinates": [
          [
            [
              11.595905,
              48.151485
            ],
            [
              11.596265,
              48.151485
            ],
            [
              11.596265,
              48.151845
            ],
            [
              11.595905,
              48.151845
            ],
            [
              11.595905,
              48.151485
            ]
          ]
        ]
      }
    },
    {
      "type": "Feature",
      "properties": {
        "id": "b1522048-d5f8-4855-a9d9-42262c296b57",
        "externalId": "BLDG-050",
        "name": "Ottobrunn Tech Suites",
        "address": "Maximilianstraße 200, District 1",
        "city": "Munich",
        "buildingType": "Mixed-Use Commercial",
        "yearBuilt": 1999,
        "floors": 9,
        "heightM": 32.21,
        "squareFootage": 49431.86,
        "annualRent": 1878886.03,
        "operatingExpenses": 643228.41,
        "vacancyRate": 0.0732,
        "rentalYield": 0.047,
        "energyEfficiencyRating": "E",
        "treeCanopyPercentage": 24.21,
        "surfaceTemperature": 29.4,
        "latitude": 48.128522,
        "longitude": 11.57889
      },
      "geometry": {
        "type": "Polygon",
        "coordinates": [
          [
            [
              11.57871,
              48.128342
            ],
            [
              11.57907,
              48.128342
            ],
            [
              11.57907,
              48.128702
            ],
            [
              11.57871,
              48.128702
            ],
            [
              11.57871,
              48.128342
            ]
          ]
        ]
      }
    }
  ]
}